NORAD_CAT_ID,OBJECT_NAME,OBJECT_TYPE,EPOCH,MEAN_MOTION,ECCENTRICITY,INCLINATION,RA_OF_ASC_NODE,ARG_OF_PERICENTER,MEAN_ANOMALY,BSTAR,MEAN_MOTION_DOT,MEAN_MOTION_DDOT,TLE_LINE0,TLE_LINE1,TLE_LINE2,SEMIMAJOR_AXIS,PERIOD,APOGEE,PERIGEE,DECAYED
53431.0,STARLINK-4548,PAYLOAD,2022-09-27 06:00:00,15.7317316,0.0002577,53.2173,10.2187,16.6131,163.3823,0.00059146,0.00083124,0.0,0 STARLINK-4548,1 53431U 22097AV  22270.25001157  .00083124  00000-0  59146-3 0  9996,2 53431  53.2173  10.2187 0002577  16.6131 163.3823 15.73173160  7992,6727.972,91.535,351.57,348.103,0.0
53431.0,STARLINK-4548,PAYLOAD,2022-09-27 14:00:01,15.73254843,0.0002872,53.2171,8.5714,14.897,254.029,-0.00034257,-0.00048547,0.0,0 STARLINK-4548,1 53431U 22097AV  22270.58334491 -.00048547  00000-0 -34257-3 0  9990,2 53431  53.2171   8.5714 0002872  14.8970 254.0290 15.73254843  1308,6727.739000000001,91.53,351.536,347.672,0.0
53431.0,STARLINK-4548,PAYLOAD,2022-09-27 22:00:01,15.73285653,0.0002873,53.2167,6.9209,16.4094,341.576,0.00013069,0.00017828,0.0,0 STARLINK-4548,1 53431U 22097AV  22270.91668981  .00017828  00000-0  13069-3 0  9995,2 53431  53.2167   6.9209 0002873  16.4094 341.5760 15.73285653  1307,6727.651,91.528,351.449,347.583,0.0
53431.0,STARLINK-4548,PAYLOAD,2022-09-28 06:00:00,15.73248529,0.0002753999999999,53.2169,5.2705,20.097,66.7315,-0.00021086,-0.00030177,0.0,0 STARLINK-4548,1 53431U 22097AV  22271.25001157 -.00030177  00000-0 -21086-3 0  9991,2 53431  53.2169   5.2705 0002754  20.0970  66.7315 15.73248529  8157,6727.757,91.53,351.475,347.769,0.0
53431.0,STARLINK-4548,PAYLOAD,2022-09-28 14:00:01,15.73210825,0.0003018,53.2168,3.623,16.7134,159.0944,-0.0005071,-0.00071243,0.0,0 STARLINK-4548,1 53431U 22097AV  22271.58334491 -.00071243  00000-0 -50710-3 0  9992,2 53431  53.2168   3.6230 0003018  16.7134 159.0944 15.73210825  1301,6727.864000000001,91.533,351.76,347.699,0.0
53431.0,STARLINK-4548,PAYLOAD,2022-09-28 22:00:00,15.73146339,0.0002959,53.2169,1.9726,12.7513,251.9459,-0.0001145,-0.00016627,0.0,0 STARLINK-4548,1 53431U 22097AV  22271.91667824 -.00016627  00000-0 -11450-3 0  9991,2 53431  53.2169   1.9726 0002959  12.7513 251.9459 15.73146339  8255,6728.0480000000025,91.536,351.904,347.922,0.0
53431.0,STARLINK-4548,PAYLOAD,2022-09-29 06:00:00,15.73144972,0.000288,53.2172,0.3221,14.9633,338.5875,0.00054127,0.00075862,0.0,0 STARLINK-4548,1 53431U 22097AV  22272.25001157  .00075862  00000-0  54127-3 0  9992,2 53431  53.2172   0.3221 0002880  14.9633 338.5875 15.73144972  8303,6728.052,91.536,351.855,347.97900000000016,0.0
53431.0,STARLINK-4548,PAYLOAD,2022-09-29 14:00:01,15.73182462,0.0003205,53.217,358.6748,14.8003,67.6455,0.0004415,0.00061762,0.0,0 STARLINK-4548,1 53431U 22097AV  22272.58334491  .00061762  00000-0  44150-3 0  9997,2 53431  53.2170 358.6748 0003205  14.8003  67.6455 15.73182462  1309,6727.945,91.534,351.966,347.654,0.0
53431.0,STARLINK-4548,PAYLOAD,2022-09-29 22:00:00,15.73267001,0.0003116,53.2165,357.0241,13.8206,157.5522,-0.0002421999999999,-0.00034582,0.0,0 STARLINK-4548,1 53431U 22097AV  22272.91667824 -.00034582  00000-0 -24220-3 0  9991,2 53431  53.2165 357.0241 0003116  13.8206 157.5522 15.73267001  8415,6727.704000000002,91.529,351.666,347.473,0.0
53431.0,STARLINK-4548,PAYLOAD,2022-09-30 14:00:01,15.73271454,0.0003237,53.2166,353.7262,10.0554,339.2957,-0.00031812,-0.00045181,0.0,0 STARLINK-4548,1 53431U 22097AV  22273.58334491 -.00045181  00000-0 -31812-3 0  9998,2 53431  53.2166 353.7262 0003237  10.0554 339.2957 15.73271454  1300,6727.691,91.529,351.7340000000001,347.379,0.0
53431.0,STARLINK-4548,PAYLOAD,2022-09-30 16:00:00,15.73234212,0.0003286,53.2166,353.3139,8.5305,93.0817,0.00018632,0.0002565,0.0,0 STARLINK-4548,1 53431U 22097AV  22273.66667824  .00025650  00000-0  18632-3 0  9998,2 53431  53.2166 353.3139 0003286   8.5305  93.0817 15.73234212  8532,6727.7980000000025,91.531,351.87300000000016,347.452,0.0
53431.0,STARLINK-4548,PAYLOAD,2022-09-30 22:00:00,15.73284407,0.0003226,53.2167,352.0751,8.6893,69.6552,-0.00061637,-0.00086581,0.0,0 STARLINK-4548,1 53431U 22097AV  22273.91667824 -.00086581  00000-0 -61637-3 0  9991,2 53431  53.2167 352.0751 0003226   8.6893  69.6552 15.73284407  1300,6727.655,91.528,351.69,347.349,0.0
53431.0,STARLINK-4548,PAYLOAD,2022-10-01 06:00:00,15.73213908,0.0003163,53.217,350.4246,11.4847,155.8521,-5.1497e-05,-7.85e-05,0.0,0 STARLINK-4548,1 53431U 22097AV  22274.25001157 -.00007850  00000-0 -51497-4 0  9996,2 53431  53.2170 350.4246 0003163  11.4847 155.8521 15.73213908  8620,6727.856,91.532,351.849,347.593,0.0
53431.0,STARLINK-4548,PAYLOAD,2022-10-01 14:00:01,15.73216225,0.000346,53.2169,348.7771,8.3422,247.9272,-8.064300000000001e-05,-0.00011937,0.0,0 STARLINK-4548,1 53431U 22097AV  22274.58334491 -.00011937  00000-0 -80643-4 0  9998,2 53431  53.2169 348.7771 0003460   8.3422 247.9272 15.73216225  1304,6727.849,91.532,352.042,347.386,0.0
53431.0,STARLINK-4548,PAYLOAD,2022-10-01 22:00:00,15.73194816,0.0003291,53.2165,347.1261,4.8662,340.3519,-0.00056157,-0.00078712,0.0,0 STARLINK-4548,1 53431U 22097AV  22274.91667824 -.00078712  00000-0 -56157-3 0  9990,2 53431  53.2165 347.1261 0003291   4.8662 340.3519 15.73194816  1309,6727.91,91.533,351.98900000000015,347.561,0.0
53431.0,STARLINK-4548,PAYLOAD,2022-10-02 06:00:00,15.73166185,0.0003273,53.2166,345.4763,6.4715,67.6288,-0.00028601,-0.00040524,0.0,0 STARLINK-4548,1 53431U 22097AV  22275.25001157 -.00040524  00000-0 -28601-3 0  9992,2 53431  53.2166 345.4763 0003273   6.4715  67.6288 15.73166185  8784,6727.9919999999975,91.535,352.059,347.655,0.0
53431.0,STARLINK-4548,PAYLOAD,2022-10-02 14:00:01,15.73116015,0.0003628,53.2166,343.8288,8.3023,154.6765,0.00073409,0.00103332,0.0,0 STARLINK-4548,1 53431U 22097AV  22275.58334491  .00103332  00000-0  73409-3 0  9999,2 53431  53.2166 343.8288 0003628   8.3023 154.6765 15.73116015  1300,6728.135,91.538,352.441,347.559,0.0
53431.0,STARLINK-4548,PAYLOAD,2022-10-02 22:00:00,15.73198029,0.0003542,53.2169,342.1777,8.9948,242.8581,0.000394,0.00055046,0.0,0 STARLINK-4548,1 53431U 22097AV  22275.91667824  .00055046  00000-0  39400-3 0  9996,2 53431  53.2169 342.1777 0003542   8.9948 242.8581 15.73198029  8886,6727.901,91.533,352.149,347.3830000000001,0.0
53431.0,STARLINK-4548,PAYLOAD,2022-10-03 14:00:01,15.73243898,0.0003811,53.2171,338.8801,7.4711,62.3396,0.00023397,0.00032412,0.0,0 STARLINK-4548,1 53431U 22097AV  22276.58334491  .00032412  00000-0  23397-3 0  9991,2 53431  53.2171 338.8801 0003811   7.4711  62.3396 15.73243898  1304,6727.77,91.531,352.199,347.071,0.0
53431.0,STARLINK-4548,PAYLOAD,2022-10-03 22:00:00,15.7335406,0.0003708999999999,53.217,337.2183,6.4417,152.3603,-0.0036820999999999,-0.00491908,0.0,0 STARLINK-4548,1 53431U 22097AV  22276.91667824 -.00491908  00000-0 -36821-2 0  9993,2 53431  53.2170 337.2183 0003709   6.4417 152.3603 15.73354060  1302,6727.456,91.524,351.816,346.826,0.0
53431.0,STARLINK-4548,PAYLOAD,2022-10-04 06:00:00,15.73084294,0.0003406,53.2173,335.5606,9.7368,237.9254,0.001385,0.0019744,0.0,0 STARLINK-4548,1 53431U 22097AV  22277.25001157  .00197440  00000-0  13850-2 0  9991,2 53431  53.2173 335.5606 0003406   9.7368 237.9254 15.73084294  9096,6728.225,91.54,352.38199999999995,347.798,0.0
53431.0,STARLINK-4548,PAYLOAD,2022-10-04 14:00:01,15.73203416,0.0003643,53.2174,333.9117,9.9848,326.5543,1.1868e-05,1.042e-05,0.0,0 STARLINK-4548,1 53431U 22097AV  22277.58334491  .00001042  00000-0  11868-4 0  9998,2 53431  53.2174 333.9117 0003643   9.9848 326.5543 15.73203416  1305,6727.885,91.533,352.201,347.2990000000001,0.0
53431.0,STARLINK-4548,PAYLOAD,2022-10-04 16:00:00,15.73203762,0.0003642,53.2171,333.499,9.6806,79.0918,1.2879000000000003e-05,1.184e-05,0.0,0 STARLINK-4548,1 53431U 22097AV  22277.66667824  .00001184  00000-0  12879-4 0  9996,2 53431  53.2171 333.4990 0003642   9.6806  79.0918 15.73203762  9168,6727.884,91.533,352.2,347.2990000000001,0.0
53431.0,STARLINK-4548,PAYLOAD,2022-10-04 22:00:00,15.73193242,0.0003758,53.2169,332.2803,1.7686,63.8734,-0.00013817,-0.00019972,0.0,0 STARLINK-4548,1 53431U 22097AV  22277.91667824 -.00019972  00000-0 -13817-3 0  9992,2 53431  53.2169 332.2803 0003758   1.7686  63.8734 15.73193242  1308,6727.9140000000025,91.534,352.30800000000005,347.251,0.0
53431.0,STARLINK-4548,PAYLOAD,2022-10-05 14:00:01,15.7310304,0.0004161,53.2169,328.9833,3.7915,239.713,0.00094708,0.0013392,0.0,0 STARLINK-4548,1 53431U 22097AV  22278.58335648  .00133920  00000-0  94708-3 0  9998,2 53431  53.2169 328.9833 0004161   3.7915 239.7130 15.73103040  1300,6728.172,91.539,352.836,347.237,0.0
53431.0,STARLINK-4548,PAYLOAD,2022-10-05 22:00:00,15.73208032,0.0003908999999999,53.2167,327.3321,2.944,329.3616,-5.282e-05,-8.036e-05,0.0,0 STARLINK-4548,1 53431U 22097AV  22278.91667824 -.00008036  00000-0 -52820-4 0  9990,2 53431  53.2167 327.3321 0003909   2.9440 329.3616 15.73208032  1308,6727.871999999999,91.533,352.367,347.107,0.0
53431.0,STARLINK-4548,PAYLOAD,2022-10-06 14:00:01,15.73170689,0.0004319,53.2163,324.0355,8.244,141.968,0.00073089,0.00103132,0.0,0 STARLINK-4548,1 53431U 22097AV  22279.58334491  .00103132  00000-0  73089-3 0  9995,2 53431  53.2163 324.0355 0004319   8.2440 141.9680 15.73170689  1305,6727.979,91.535,352.75,346.93800000000016,0.0
53431.0,STARLINK-4548,PAYLOAD,2022-10-06 22:42:55,15.73310214,0.0004091,53.2167,322.2264,7.3089,40.6635,-0.0018978999999999,-0.00260322,0.0,0 STARLINK-4548,1 53431U 22097AV  22279.94646991 -.00260322  00000-0 -18979-2 0  9999,2 53431  53.2167 322.2264 0004091   7.3089  40.6635 15.73310214  1309,6727.581,91.527,352.1980000000001,346.694,0.0
53431.0,STARLINK-4548,PAYLOAD,2022-10-07 00:00:00,15.73315413,0.0003951,53.2166,321.9599,7.2105,344.1777,-0.0023669,-0.00322224,0.0,0 STARLINK-4548,1 53431U 22097AV  22280.00001157 -.00322224  00000-0 -23669-2 0  9999,2 53431  53.2166 321.9599 0003951   7.2105 344.1777 15.73315413  9524,6727.566,91.526,352.089,346.773,0.0
